GALAXY 16 (G-16)        
1 29236U 06023A   26154.90380933 -.00000115  00000+0  00000+0 0  9992
2 29236   0.0267 209.2328 0003173 233.6382  35.8617  1.00273904 72843
EUTELSAT 33F            
1 29270U 06032A   26154.92992515  .00000167  00000+0  00000+0 0  9993
2 29270   1.6272  82.3899 0003677 345.7042 192.1515  1.00273034 47170
JCSAT-3A                
1 29272U 06033A   26154.87746253 -.00000333  00000+0  00000+0 0  9992
2 29272   0.0228 294.6948 0002280 139.2293 262.2914  1.00271433 47603
KOREASAT 5 (MUGUNGWHA 5)
1 29349U 06034A   26154.87451586 -.00000346  00000+0  00000+0 0  9994
2 29349   1.7508  83.1470 0001743  29.9371 207.1169  1.00269947 41187
DIRECTV 9S              
1 29494U 06043A   26154.90337600 -.00000102  00000+0  00000+0 0  9999
2 29494   2.3864  81.0603 0005209   2.9858  32.3405  1.00272044 51259
OPTUS D1                
1 29495U 06043B   26154.88222922 -.00000172  00000+0  00000+0 0  9994
2 29495   3.0006  79.8181 0003871 348.9604 293.1559  1.00272886 71980
BADR-4                  
1 29526U 06051A   26153.87544968  .00000166  00000+0  00000+0 0  9995
2 29526   1.9664  81.2933 0007686 158.1112 354.3784  1.00437401 51127
WILDBLUE-1              
1 29643U 06054A   26154.90129598 -.00000038  00000+0  00000+0 0  9990
2 29643   2.7688  80.6469 0001781   2.2459  22.7219  1.00271635 53667
SKYNET 5A               
1 30794U 07007B   26154.79965542 -.00000261  00000+0  00000+0 0  9990
2 30794   5.2678  73.9005 0004041   6.9411 194.4938  1.00269314 70569
ANIK F3                 
1 31102U 07009A   26154.89990932  .00000011  00000+0  00000+0 0  9990
2 31102   1.1629  84.0047 0002870 347.5870  26.0100  1.00270819 46436
ASTRA 1L                
1 31306U 07016A   26154.84728106 -.00000173  00000+0  00000+0 0  9991
2 31306   1.2872  81.6869 0005482   0.9973  90.1535  1.00271594 44853
GALAXY 17 (G-17)        
1 31307U 07016B   26154.90658267 -.00000195  00000+0  00000+0 0  9993
2 31307   2.9388  80.0670 0005003  12.1854  41.4781  1.00270885 69670
INTELSAT 11 (IS-11)     
1 32253U 07044B   26154.81738094 -.00000117  00000+0  00000+0 0  9996
2 32253   3.5306  78.8304 0001583  72.8739 219.3576  0.99053331 68311
WGS F1 (USA 195)        
1 32258U 07046A   26154.84372772 -.00000255  00000+0  00000+0 0  9996
2 32258   0.0529  96.4840 0000363 318.6485  98.4281  1.00275919 52201
SKYNET 5B               
1 32294U 07056B   26154.85715910  .00000150  00000+0  00000+0 0  9996
2 32294   5.2198  73.6596 0003758 355.2989 157.0161  1.00273629 68068
ASTRA 4A                
1 32299U 07057A   26154.92435868  .00000045  00000+0  00000+0 0  9994
2 32299   0.0164  14.9482 0002593  62.5794 152.4239  1.00272502 51515
HORIZONS-2              
1 32388U 07063B   26154.90883602 -.00000242  00000+0  00000+0 0  9991
2 32388   2.5678  80.7839 0004229 351.0594  73.9145  1.00274015 67689
THURAYA-3               
1 32404U 08001A   26154.72713332 -.00000159  00000+0  00000+0 0  9992
2 32404   5.9667  35.7798 0000821 145.7434  61.2027  1.00010467 67354
THOR 5                  
1 32487U 08006A   26154.92331868  .00000000  00000+0  00000+0 0  9994
2 32487   0.0124 327.7280 0002810 117.0637 139.2237  1.00270044 67185
AMC-14                  
1 32708U 08011A   26147.73428900 -.00000002  00000+0  00000+0 0  9994
2 32708  23.9628  20.7255 0049976  92.2727  95.7206  1.00350219 67965
DIRECTV 11              
1 32729U 08013A   26154.90380933 -.00000114  00000+0  00000+0 0  9993
2 32729   0.0080 288.3336 0000570  99.8948  90.3221  1.00270546 45466
ICO G1                  
1 32763U 08016A   26154.61987242 -.00000162  00000+0  00000+0 0  9991
2 32763   5.5321  36.1838 0002247  23.8849 322.2959  1.00271362 66407
VINASAT-1               
1 32767U 08018A   26154.87824255 -.00000316  00000+0  00000+0 0  9990
2 32767   0.0178 307.1334 0001475 139.6538 253.6588  1.00268887 66454
STAR ONE C2             
1 32768U 08018B   26154.91056935 -.00000265  00000+0  00000+0 0  9991
2 32768   1.2071  82.5842 0002971 356.5262  76.0682  1.00270365 66528
AMOS-3                  
1 32794U 08022A   26154.92923182  .00000168  00000+0  00000+0 0  9994
2 32794   0.4209  86.4484 0001841  55.5165 114.2351  1.00469853 82202
GALAXY 18 (G-18)        
1 32951U 08024A   26154.89904264  .00000037  00000+0  00000+0 0  9992
2 32951   0.0152  10.9583 0003315  70.7685  11.2749  1.00271586 45723
ZHONGXING-9             
1 33051U 08028A   26154.94169332 -.00000237  00000+0  00000+0 0  9996
2 33051   0.7355  85.5305 0004921 327.8963 270.3595  1.00270325 65905
SKYNET 5C               
1 33055U 08030A   26154.91993867 -.00000129  00000+0  00000+0 0  9998
2 33055   3.7549  77.1964 0004288   4.7770 123.8063  1.00271380 65823
TURKSAT 3A              
1 33056U 08030B   26154.93172661  .00000158  00000+0  00000+0 0  9993
2 33056   0.0660  83.7481 0005489 340.3629 205.6780  1.00271240 52221
INTELSAT 25 (IS-25)     
1 33153U 08034A   26154.88803593 -.00000141  00000+0  00000+0 0  9997
2 33153   2.6738  80.4931 0002011  31.2063 281.4521  0.99026769 65559
ECHOSTAR 11             
1 33207U 08035A   26154.62216874 -.00000046  00000+0  00000+0 0  9994
2 33207   0.9699  84.3337 0002722 332.8366 309.0954  1.00271935 51073
SUPERBIRD-C2            
1 33274U 08038A   26154.87902255 -.00000295  00000+0  00000+0 0  9999
2 33274   2.3266  81.4260 0006162  20.5263 242.8177  1.00270452105596
