OBJECT_NAME,OBJECT_ID,EPOCH,MEAN_MOTION,ECCENTRICITY,INCLINATION,RA_OF_ASC_NODE,ARG_OF_PERICENTER,MEAN_ANOMALY,EPHEMERIS_TYPE,CLASSIFICATION_TYPE,NORAD_CAT_ID,ELEMENT_SET_NO,REV_AT_EPOCH,BSTAR,MEAN_MOTION_DOT,MEAN_MOTION_DDOT
GALAXY 16 (G-16),2006-023A,2026-06-03T21:41:29.126112,1.00273904,.00031737,0.0267,209.2328,233.6382,35.8617,0,U,29236,999,7284,0,-.115E-5,0
EUTELSAT 33F,2006-032A,2026-06-03T22:19:05.532960,1.00273034,.00036771,1.6272,82.3899,345.7042,192.1515,0,U,29270,999,4717,0,.167E-5,0
JCSAT-3A,2006-033A,2026-06-03T21:03:32.762592,1.00271433,.00022802,0.0228,294.6948,139.2293,262.2914,0,U,29272,999,4760,0,-.333E-5,0
KOREASAT 5 (MUGUNGWHA 5),2006-034A,2026-06-03T20:59:18.170304,1.00269947,.00017431,1.7508,83.1470,29.9371,207.1169,0,U,29349,999,4118,0,-.346E-5,0
DIRECTV 9S,2006-043A,2026-06-03T21:40:51.686400,1.00272044,.00052098,2.3864,81.0603,2.9858,32.3405,0,U,29494,999,5125,0,-.102E-5,0
OPTUS D1,2006-043B,2026-06-03T21:10:24.604608,1.00272886,.00038712,3.0006,79.8181,348.9604,293.1559,0,U,29495,999,7198,0,-.172E-5,0
BADR-4,2006-051A,2026-06-02T21:00:38.852352,1.00437401,.0007686,1.9664,81.2933,158.1112,354.3784,0,U,29526,999,5112,0,.166E-5,0
WILDBLUE-1,2006-054A,2026-06-03T21:37:51.972672,1.00271635,.00017819,2.7688,80.6469,2.2459,22.7219,0,U,29643,999,5366,0,-.38E-6,0
SKYNET 5A,2007-007B,2026-06-03T19:11:30.228288,1.00269314,.00040416,5.2678,73.9005,6.9411,194.4938,0,U,30794,999,7056,0,-.261E-5,0
ANIK F3,2007-009A,2026-06-03T21:35:52.165248,1.00270819,.000287,1.1629,84.0047,347.5870,26.0100,0,U,31102,999,4643,0,.11E-6,0
ASTRA 1L,2007-016A,2026-06-03T20:20:05.083584,1.00271594,.00054826,1.2872,81.6869,0.9973,90.1535,0,U,31306,999,4485,0,-.173E-5,0
GALAXY 17 (G-17),2007-016B,2026-06-03T21:45:28.742688,1.00270885,.00050038,2.9388,80.0670,12.1854,41.4781,0,U,31307,999,6967,0,-.195E-5,0
INTELSAT 11 (IS-11),2007-044B,2026-06-03T19:37:01.713216,0.99053331,.00015839,3.5306,78.8304,72.8739,219.3576,0,U,32253,999,6831,0,-.117E-5,0
WGS F1 (USA 195),2007-046A,2026-06-03T20:14:58.075008,1.00275919,.00003634,0.0529,96.4840,318.6485,98.4281,0,U,32258,999,5220,0,-.255E-5,0
SKYNET 5B,2007-056B,2026-06-03T20:34:18.546240,1.00273629,.0003758,5.2198,73.6596,355.2989,157.0161,0,U,32294,999,6806,0,.15E-5,0
ASTRA 4A,2007-057A,2026-06-03T22:11:04.589952,1.00272502,.00025938,0.0164,14.9482,62.5794,152.4239,0,U,32299,999,5151,0,.45E-6,0
HORIZONS-2,2007-063B,2026-06-03T21:48:43.432128,1.00274015,.00042293,2.5678,80.7839,351.0594,73.9145,0,U,32388,999,6768,0,-.242E-5,0
THURAYA-3,2008-001A,2026-06-03T17:27:04.318848,1.00010467,.00008215,5.9667,35.7798,145.7434,61.2027,0,U,32404,999,6735,0,-.159E-5,0
THOR 5,2008-006A,2026-06-03T22:09:34.733952,1.00270044,.00028105,0.0124,327.7280,117.0637,139.2237,0,U,32487,999,6718,0,0,0
AMC-14,2008-011A,2026-05-27T17:37:22.569600,1.00350219,.00499765,23.9628,20.7255,92.2727,95.7206,0,U,32708,999,6796,0,-.2E-7,0
DIRECTV 11,2008-013A,2026-06-03T21:41:29.126112,1.00270546,.000057,0.0080,288.3336,99.8948,90.3221,0,U,32729,999,4546,0,-.114E-5,0
ICO G1,2008-016A,2026-06-03T14:52:36.977088,1.00271362,.00022472,5.5321,36.1838,23.8849,322.2959,0,U,32763,999,6640,0,-.162E-5,0
VINASAT-1,2008-018A,2026-06-03T21:04:40.156320,1.00268887,.00014753,0.0178,307.1334,139.6538,253.6588,0,U,32767,999,6645,0,-.316E-5,0
STAR ONE C2,2008-018B,2026-06-03T21:51:13.191840,1.00270365,.00029714,1.2071,82.5842,356.5262,76.0682,0,U,32768,999,6652,0,-.265E-5,0
AMOS-3,2008-022A,2026-06-03T22:18:05.629248,1.00469853,.00018416,0.4209,86.4484,55.5165,114.2351,0,U,32794,999,8220,0,.168E-5,0
GALAXY 18 (G-18),2008-024A,2026-06-03T21:34:37.284096,1.00271586,.00033151,0.0152,10.9583,70.7685,11.2749,0,U,32951,999,4572,0,.37E-6,0
ZHONGXING-9,2008-028A,2026-06-03T22:36:02.302848,1.00270325,.00049214,0.7355,85.5305,327.8963,270.3595,0,U,33051,999,6590,0,-.237E-5,0
SKYNET 5C,2008-030A,2026-06-03T22:04:42.701088,1.00271380,.00042885,3.7549,77.1964,4.7770,123.8063,0,U,33055,999,6582,0,-.129E-5,0
TURKSAT 3A,2008-030B,2026-06-03T22:21:41.179104,1.00271240,.00054897,0.0660,83.7481,340.3629,205.6780,0,U,33056,999,5222,0,.158E-5,0
INTELSAT 25 (IS-25),2008-034A,2026-06-03T21:18:46.304352,0.99026769,.00020111,2.6738,80.4931,31.2063,281.4521,0,U,33153,999,6555,0,-.141E-5,0
ECHOSTAR 11,2008-035A,2026-06-03T14:55:55.379136,1.00271935,.00027224,0.9699,84.3337,332.8366,309.0954,0,U,33207,999,5107,0,-.46E-6,0
SUPERBIRD-C2,2008-038A,2026-06-03T21:05:47.548320,1.00270452,.00061624,2.3266,81.4260,20.5263,242.8177,0,U,33274,999,10559,0,-.295E-5,0
